COSMOS 2425 (716)       
1 29670U 06062A   21122.73753505  .00000003  00000-0  00000-0 0  9994
2 29670  64.8568 256.9915 0024063 347.3436   9.7136  2.13114890111698
COSMOS 2433 (720)       
1 32275U 07052A   21124.33273844 -.00000095  00000-0  00000+0 0  9991
2 32275  66.0537  18.2496 0002232 287.2559  29.4971  2.13104157105243
COSMOS 2432 (719)       
1 32276U 07052B   21123.92122914 -.00000094  00000-0  00000-0 0  9997
2 32276  66.0696  18.3581 0011177 334.5749 335.8851  2.13103642105239
COSMOS 2434 (721)       
1 32393U 07065A   21123.79963875 -.00000013  00000-0  00000-0 0  9996
2 32393  64.4746 255.4342 0004073  89.4914  66.5555  2.13103105103942
COSMOS 2436 (723)       
1 32395U 07065C   21124.18465888 -.00000018  00000-0  00000+0 0  9997
2 32395  64.4850 255.4740 0015027   5.5920 221.9485  2.13103034103882
COSMOS 2456 (730)       
1 36111U 09070A   21123.44329287  .00000066  00000-0  00000-0 0  9998
2 36111  64.2692 135.1261 0006134 303.3657 110.4379  2.13099271 88604
COSMOS 2457 (733)       
1 36112U 09070B   21123.88002017  .00000071  00000-0  00000-0 0  9992
2 36112  64.2512 134.9964 0004596 195.8424 317.0284  2.13101475 88610
COSMOS 2459 (731)       
1 36400U 10007A   21124.34143512 -.00000095  00000-0  00000+0 0  9998
2 36400  65.9525  17.1804 0026570 350.4863 189.7378  2.13108050 86969
COSMOS 2461 (735)       
1 36401U 10007B   21124.12462051 -.00000094  00000-0  00000+0 0  9996
2 36401  65.9470  17.1521 0021786   7.9742   7.1158  2.13103861 86974
COSMOS 2460 (732)       
1 36402U 10007C   21123.81570433 -.00000094  00000-0  00000-0 0  9997
2 36402  65.9344  17.1200 0001992  18.7148  63.7459  2.13106638 86962
COSMOS 2464 (736)       
1 37139U 10041C   21124.07056385 -.00000018  00000-0  00000+0 0  9992
2 37139  64.0747 254.7055 0028118  13.3215 211.8213  2.13100791 83021
COSMOS 2471 (701K)      
1 37372U 11009A   21124.33129027 -.00000095  00000-0  00000+0 0  9994
2 37372  65.9306  17.0402 0013293 229.3249  46.6606  2.13081232 79248
COSMOS 2476 (744)       
1 37867U 11064A   21124.45430770  .00000077  00000-0  00000+0 0  9996
2 37867  64.5644 136.2871 0022304 241.8461 129.5512  2.13101905 73970
COSMOS 2477 (745)       
1 37868U 11064B   21123.59205078  .00000068  00000-0  00000+0 0  9992
2 37868  64.5716 136.3770 0019752 243.1410   5.1003  2.13101755 73902
COSMOS 2475 (743)       
1 37869U 11064C   21123.71634538  .00000069  00000-0  00000-0 0  9996
2 37869  64.5794 136.3769 0024181 260.7170  40.5196  2.13101966 73918
COSMOS 2485 (747)       
1 39155U 13019A   21123.78707014  .00000070  00000-0  00000-0 0  9997
2 39155  64.7303 136.6493 0022656 237.6496  26.3387  2.13101936 62427
COSMOS 2492 (754)       
1 39620U 14012A   21123.95131939 -.00000094  00000-0  00000+0 0  9990
2 39620  65.8230  16.8531 0014289 330.3495  94.5021  2.13103254 55384
COSMOS 2500 (755)       
1 40001U 14032A   21123.61501391 -.00000093  00000-0  00000-0 0  9993
2 40001  65.7632  16.7561 0004569 206.7883 179.8168  2.13102641 53592
COSMOS 2501 (702K)      
1 40315U 14075A   21124.03584976 -.00000017  00000-0  00000+0 0  9990
2 40315  63.7851 255.5290 0016393 206.9042 308.7208  2.13101457 50005
COSMOS 2514 (751)       
1 41330U 16008A   21124.51857780 -.00000095  00000-0  00000+0 0  9991
2 41330  65.5655  16.5189 0008263 217.8277 325.0094  2.13102991 40777
COSMOS 2516 (753)       
1 41554U 16032A   21123.60908248 -.00000011  00000-0  00000-0 0  9990
2 41554  64.0121 255.7053 0012642 212.9062 246.4231  2.13106849 38365
COSMOS 2522 (752)       
1 42939U 17055A   21124.12778859 -.00000018  00000-0  00000+0 0  9991
2 42939  64.2434 255.9605 0006158 242.4279 118.7564  2.13101910 28138
COSMOS 2527 (756)       
1 43508U 18053A   21124.21231804  .00000075  00000-0  00000+0 0  9999
2 43508  64.8957 136.5508 0009399 242.7548 215.3412  2.13102624 22420
COSMOS 2529 (757)       
1 43687U 18086A   21123.66336131 -.00000010  00000-0  00000-0 0  9991
2 43687  64.4592 256.1841 0008192 271.7096  48.7395  2.13102162 19429
COSMOS 2534 (758)       
1 44299U 19030A   21123.85279170 -.00000013  00000-0  00000-0 0  9994
2 44299  64.5304 256.0241 0011393 292.8035 307.8263  2.13102087 15074
COSMOS 2544 (759)       
1 44850U 19088A   21123.92299830  .00000072  00000-0  00000-0 0  9997
2 44850  64.8789 136.4202 0014151 266.1869  13.7538  2.13102400 10857
COSMOS 2545 (760)       
1 45358U 20018A   21123.57738569 -.00000094  00000-0  00000-0 0  9999
2 45358  64.8978  17.4957 0007926 260.4537 324.4116  2.13102825  8792
